IRIDIUM 150             
1 43257U 18030J   24284.55726043  .00000059  00000+0  14135-4 0  9996
2 43257  86.4045 187.3485 0002451  85.4595 274.6881 14.34216401342061
IRIDIUM 143             
1 43258U 18030K   24283.70101016  .00000781  00000+0  27185-3 0  9990
2 43258  86.4045 187.7740 0002514  85.8569 274.2915 14.34219428341879
IRIDIUM 161             
1 43478U 18047C   24284.13517392  .00000448  00000+0  12713-3 0  9999
2 43478  86.4529 345.5168 0002053  99.9143 260.2289 14.43277277336420
IRIDIUM 152             
1 43479U 18047D   24283.53418893  .00000973  00000+0  34019-3 0  9995
2 43479  86.4004 345.6273 0002181  93.6391 266.5054 14.34221114334241
IRIDIUM 147             
1 43480U 18047E   24284.58706102 -.00000020  00000+0 -14104-4 0  9995
2 43480  86.4006 345.1815 0001968  93.8830 266.2591 14.34217669334393
IRIDIUM 110             
1 43481U 18047F   24284.59339857  .00000100  00000+0  28638-4 0  9990
2 43481  86.4017 345.2559 0001772 100.8342 259.3054 14.34219788334382
IRIDIUM 162             
1 43482U 18047G   24283.57416090  .00001587  00000+0  46566-3 0  9992
2 43482  86.4531 345.6498 0001749  98.3297 261.8102 14.43291955336339
IRIDIUM 160             
1 43569U 18061A   24284.53923150  .00001160  00000+0  40698-3 0  9998
2 43569  86.3945 313.6553 0001966  89.0461 271.0960 14.34225610325272
